IRIDIUM 106             
1 41917U 17003A   25084.76298699 -.00000013  00000+0 -11679-4 0  9991
2 41917  86.3907 275.8908 0001501  83.5282 276.6084 14.34217336428934
IRIDIUM 103             
1 41918U 17003B   25084.82007280 -.00000028  00000+0 -17242-4 0  9991
2 41918  86.3907 275.7679 0002429  76.2307 283.9159 14.34217904428964
IRIDIUM 109             
1 41919U 17003C   25084.47757032  .00000701  00000+0  24326-3 0  9996
2 41919  86.3910 275.9634 0002360  89.2426 270.9040 14.34219832428880
IRIDIUM 102             
1 41920U 17003D   25084.93423855  .00000291  00000+0  96992-4 0  9995
2 41920  86.3908 275.7052 0002075  94.2191 265.9242 14.34216714429031
IRIDIUM 105             
1 41921U 17003E   25084.83517081  .00000981  00000+0  34324-3 0  9996
2 41921  86.3945 244.1618 0002067  89.9220 270.2213 14.34229853430875
IRIDIUM 104             
1 41922U 17003F   25084.94692569  .00000318  00000+0  10657-3 0  9991
2 41922  86.3910 275.7357 0002571  85.7057 274.4433 14.34216334429025
IRIDIUM 114             
1 41923U 17003G   25084.95326562 -.00000019  00000+0 -13719-4 0  9993
2 41923  86.3907 275.7177 0002071  83.1199 277.0232 14.34217325429001
IRIDIUM 108             
1 41924U 17003H   25084.70247955  .00000029  00000+0  33572-5 0  9994
2 41924  86.3939 244.1238 0001903  94.2511 265.8903 14.34215524430820
